[{"OBJECT_NAME":"STARLINK-30512","OBJECT_ID":"2023-151N","EPOCH":"2026-03-09T22:00:01.999584","MEAN_MOTION":15.27542701,"ECCENTRICITY":0.00014616,"INCLINATION":43.0006,"RA_OF_ASC_NODE":334.5386,"ARG_OF_PERICENTER":259.1867,"MEAN_ANOMALY":60.3165,"EPHEMERIS_TYPE":0,"CLASSIFICATION_TYPE":"U","NORAD_CAT_ID":57976,"ELEMENT_SET_NO":999,"REV_AT_EPOCH":578,"BSTAR":-0.00032128413,"MEAN_MOTION_DOT":-9.082e-5,"MEAN_MOTION_DDOT":0},{"OBJECT_NAME":"VSP ROSE","OBJECT_ID":"2024-043AC","EPOCH":"2026-03-09T21:48:06.922944","MEAN_MOTION":15.27746075,"ECCENTRICITY":0.00099339,"INCLINATION":97.5443,"RA_OF_ASC_NODE":203.927,"ARG_OF_PERICENTER":232.2702,"MEAN_ANOMALY":127.7637,"EPHEMERIS_TYPE":0,"CLASSIFICATION_TYPE":"U","NORAD_CAT_ID":59124,"ELEMENT_SET_NO":999,"REV_AT_EPOCH":11182,"BSTAR":0.00025731354,"MEAN_MOTION_DOT":6.907e-5,"MEAN_MOTION_DDOT":0}]
